NARSSCUBE-2             
1 44415U 19022E   22356.37141338  .00013818  00000+0  36608-3 0  9996
2 44415  51.6392 285.6988 0010368  24.9213 335.2270 15.38582489189004
DUCHIFAT-3              
1 44854U 19089C   22357.56052399  .00006354  00000+0  47214-3 0  9998
2 44854  36.9647  58.0655 0008105 319.9585 180.5254 15.02700387166376
OPS-SAT                 
1 44878U 19092F   22356.78296996  .00013365  00000+0  55093-3 0  9998
2 44878  97.4753 179.6193 0012564  46.0340 314.1931 15.24130092166832
FLORIPASAT-1            
1 44885U 19093G   22357.20397033  .00003054  00000+0  37305-3 0  9999
2 44885  97.8848  75.4458 0012921 298.5945  61.3978 14.83969629162836
HUSKYSAT-1 (HO-107)     
1 45119U 19071J   22356.63026591  .00048586  00000+0  65146-3 0  9993
2 45119  51.6318 207.7437 0010577 150.4751 209.6840 15.57406022162548
BY70-2                  
1 45857U 20042B   22357.66517560  .00011721  00000+0  14540-2 0  9999
2 45857  97.9429  72.9113 0009565 215.9504 144.1041 14.82768317133464
SALSAT                  
1 46495U 20068K   22356.72710220  .00004460  00000+0  31337-3 0  9996
2 46495  97.7509 298.3867 0016377   4.5461 355.5911 15.05535871122503
NETSAT-4                
1 46504U 20068U   22356.79551588  .00004584  00000+0  32945-3 0  9997
2 46504  97.7415 296.5399 0013025  50.1048 310.1338 15.04704840122351
NETSAT-3                
1 46505U 20068V   22356.88304141  .00004482  00000+0  32256-3 0  9991
2 46505  97.7416 296.5150 0012640  59.0239 301.2218 15.04668547122373
NETSAT-1                
1 46506U 20068W   22356.77364444  .00005270  00000+0  37927-3 0  9998
2 46506  97.7400 296.3161 0010384  69.2423 290.9914 15.04609646122358
NETSAT-2                
1 46507U 20068X   22356.78453366  .00005758  00000+0  41387-3 0  9998
2 46507  97.7393 296.3186 0009700  72.5873 287.6417 15.04623650122300
BY70-3                  
1 46839U 20079N   22357.45780387  .00062775  00000+0  94542-3 0  9992
2 46839  97.1790  68.1749 0004178  21.3485  35.8364 15.54598297119468
UVSQ-SAT                
1 47438U 21006AB  22356.88729442  .00009305  00000+0  45564-3 0  9990
2 47438  97.4138  52.0602 0010808 348.4682  11.6302 15.18335541105844
SOMP2B                  
1 47445U 21006AJ  22357.39690688  .00008195  00000+0  40762-3 0  9995
2 47445  97.4107  52.0447 0010634 351.2819   8.8228 15.17827511105900
DIY-1 (ARDUIQUBE)       
1 47963U 21022AH  22356.50277986  .00027772  00000+0  12248-2 0  9991
2 47963  97.5177 256.3826 0012480 193.7309 166.3589 15.21680843 95455
CAS-5A                  
1 54684U 22167C   22357.45963780  .00009151  00000+0  58230-3 0  9992
2 54684  97.5384 132.2078 0014233 215.1741 233.2964 15.08931843  2139
